EQUISAT                 
1 43552U 98067PA  19157.89301287  .00010002  00000-0  12077-3 0  9993
2 43552  51.6395  41.5322 0007016 101.3856 258.7927 15.61412724 51172
AEROCUBE 12A            
1 43556U 18046C   19157.88477104  .00001774  00000-0  75306-4 0  9998
2 43556  51.6420 113.2876 0008718  30.5775 329.5712 15.28675058 49753
AEROCUBE 12B            
1 43557U 18046D   19157.43964053  .00000934  00000-0  45814-4 0  9992
2 43557  51.6416 115.5630 0008767  29.5772 330.5703 15.28546592 49630
UITMSAT-1               
1 43589U 98067PD  19157.89684192  .00011214  00000-0  13430-3 0  9992
2 43589  51.6369  42.2621 0006375 108.5007 251.6680 15.61482541 46904
MAYA-1                  
1 43590U 98067PE  19157.89208904  .00011556  00000-0  13809-3 0  9996
2 43590  51.6372  42.2334 0006516 109.2510 250.9189 15.61502674 46833
BHUTAN-1                
1 43591U 98067PF  19157.94717632  .00011840  00000-0  14102-3 0  9999
2 43591  51.6382  41.8697 0006643 109.0981 251.0733 15.61560401 46843
SIRIUSSAT-1             
1 43595U 98067PG  19157.92743974  .00009930  00000-0  12286-3 0  9997
2 43595  51.6372  43.2188 0004277  74.9493 285.1974 15.60788632 46006
SIRIUSSAT-2             
1 43596U 98067PH  19157.89257914  .00010648  00000-0  13210-3 0  9994
2 43596  51.6384  43.7679 0004846  74.1224 286.0303 15.60625486 45996
TANUSHA-3               
1 43597U 98067PJ  19157.90136231  .00013261  00000-0  15424-3 0  9998
2 43597  51.6367  42.2704 0004519  88.7748 271.3764 15.62064723 46015
SURFSAT                 
1 43614U 18070B   19157.81691947  .00001774  00000-0  48338-4 0  9991
2 43614  93.0232 358.7779 0015920   1.8640 358.2670 15.37478250 40581
CP7 (DAVE)              
1 43615U 18070C   19157.82205394  .00001761  00000-0  48105-4 0  9998
2 43615  93.0235 358.7813 0016075   1.1836 358.9453 15.37403632 40584
ELFIN-B                 
1 43616U 18070D   19157.83449327  .00002422  00000-0  64779-4 0  9996
2 43616  93.0197 358.7021 0016976   4.6270 355.5137 15.37993327 40591
ELFIN-A                 
1 43617U 18070E   19157.82866994  .00002764  00000-0  73862-4 0  9991
2 43617  93.0252 358.9055 0015978   2.1003 358.0314 15.38034322 40598
CUBEBEL-1 (BSUSAT-1)    
1 43666U 18083E   19157.88944536  .00000697  00000-0  38091-4 0  9992
2 43666  97.5196 182.4485 0013765 225.8652 255.9467 15.17553180 33491
DEBRISSAT-2             
1 43680U 98067PR  19157.95339270  .00017078  00000-0  19201-3 0  9991
2 43680  51.6408  41.8969 0004984  96.4192 263.7374 15.62704032 54764
CICERO 10               
1 43690U 18088A   19157.90578878  .00000814  00000-0  36302-4 0  9993
2 43690  85.0362 326.2673 0013030 247.8401 112.1457 15.19634770 31569
IRVINE01                
1 43693U 18088D   19157.90698337  .00001883  00000-0  82096-4 0  9997
2 43693  85.0339 325.8994 0016601 232.1916 127.7824 15.21326348 31575
PROXIMA I               
1 43694U 18088E   19157.93112133  .00000806  00000-0  34038-4 0  9993
2 43694  85.0306 325.7235 0017852 222.7879 137.1974 15.21360744 31590
PROXIMA II              
1 43696U 18088G   19157.93030891  .00000801  00000-0  33810-4 0  9997
2 43696  85.0307 325.7249 0017885 222.7505 137.2347 15.21366328 31588
FACSAT-1                
1 43721U 18096C   19157.93435363  .00001204  00000-0  49161-4 0  9992
2 43721  97.4601 227.8184 0018369  16.9493 343.2355 15.26256180 28941
CENTAURI-2              
1 43722U 18096D   19157.85097480  .00001419  00000-0  57039-4 0  9999
2 43722  97.4602 227.7758 0018574  17.8673 342.3214 15.26465746 28929
INNOSAT-2               
1 43738U 18096V   19157.92945663  .00002243  00000-0  82697-4 0  9993
2 43738  97.4600 228.4365 0025161  27.7629 332.4948 15.28602314 28983
SIRION PATHFINDER-2     
1 43759U 18099B   19157.94000106  .00000453  00000-0  46547-4 0  9990
2 43759  97.7453 230.0682 0014288   6.3713 353.7686 14.95122312 27679
CORVUS-BC 4             
1 43767U 18099K   19157.94170957  .00000463  00000-0  48042-4 0  9994
2 43767  97.7440 229.8774 0011903  10.8081 349.3393 14.94566220 27665
SHIELDS 1               
1 43850U 18104B   19157.73920905  .00000041  00000-0  00000-0 0  9997
2 43850  85.0303  64.3525 0016675  22.8796 337.3253 15.21068988 26209
STF-1                   
1 43852U 18104D   19157.74074013  .00000041  00000-0  00000-0 0  9990
2 43852  85.0334  64.5567 0017152  34.9242 325.3218 15.20575762 26192
ZACUBE-2                
1 43907U 18111AH  19157.92442365  .00000451  00000-0  21272-4 0  9991
2 43907  97.2912  63.4838 0022826  36.6311 323.6482 15.24173318 24657
LUME 1                  
1 43908U 18111AJ  19157.78714507  .00000882  00000-0  38713-4 0  9992
2 43908  97.2912  63.3627 0022814  37.2589 323.0226 15.24305947 24637
AOBA VELOX-IV           
1 43940U 19003J   19157.86140014  .00001606  00000-0  69084-4 0  9994
2 43940  97.2762 216.1227 0026079 111.3168 337.5251 15.23754494 21284
CATSAT-2                
1 44029U 98067PV  19157.86034935  .00008375  00000-0  12396-3 0  9997
2 44029  51.6403  50.3022 0005831 101.8192 258.3454 15.56201052 19739
DELPHINI                
1 44030U 98067PW  19157.92006225  .00008284  00000-0  12210-3 0  9991
2 44030  51.6393  49.9429 0005584 101.6687 258.4931 15.56333814 19717
UNITE                   
1 44031U 98067PX  19157.88555235  .00005455  00000-0  85232-4 0  9999
2 44031  51.6397  50.4638 0004176  98.4799 261.6666 15.55527734 19709
TECHEDSAT 8             
1 44032U 98067PY  19157.93863963  .00019160  00000-0  24594-3 0  9997
2 44032  51.6391  48.5694 0004838 100.8927 259.2610 15.59139486 19710
CATSAT-1                
1 44033U 98067PZ  19157.92451862  .00008233  00000-0  12198-3 0  9994
2 44033  51.6402  49.9809 0005649 102.3004 257.8620 15.56200935 19654
